[{"OBJECT_NAME":"LIZZIESAT-1 (LS-1)","OBJECT_ID":"2024-043AL","EPOCH":"2026-03-09T21:24:55.126944","MEAN_MOTION":15.26635712,"ECCENTRICITY":0.00099234,"INCLINATION":97.5461,"RA_OF_ASC_NODE":203.4772,"ARG_OF_PERICENTER":229.9925,"MEAN_ANOMALY":130.0443,"EPHEMERIS_TYPE":0,"CLASSIFICATION_TYPE":"U","NORAD_CAT_ID":59132,"ELEMENT_SET_NO":999,"REV_AT_EPOCH":11178,"BSTAR":0.0002232873,"MEAN_MOTION_DOT":5.784e-5,"MEAN_MOTION_DDOT":0},{"OBJECT_NAME":"OBJECT C","OBJECT_ID":"2017-042C","EPOCH":"2026-03-09T10:17:10.798080","MEAN_MOTION":15.23148717,"ECCENTRICITY":0.00098979,"INCLINATION":97.4062,"RA_OF_ASC_NODE":245.0163,"ARG_OF_PERICENTER":70.2407,"MEAN_ANOMALY":289.9897,"EPHEMERIS_TYPE":0,"CLASSIFICATION_TYPE":"U","NORAD_CAT_ID":42827,"ELEMENT_SET_NO":999,"REV_AT_EPOCH":47263,"BSTAR":0.00073854586,"MEAN_MOTION_DOT":0.00017421,"MEAN_MOTION_DDOT":0}]
